{
"type": "FeatureCollection",
"name": "fudao-poi",
"crs": { "type": "name", "properties": { "name": "urn:ogc:def:crs:OGC:1.3:CRS84" } },
"features": [
{ "type": "Feature", "properties": { "name": "福島市" }, "geometry": { "type": "Point", "coordinates": [ 140.401870976615129, 37.8004810045 ] } },
{ "type": "Feature", "properties": { "name": "会津若松市" }, "geometry": { "type": "Point", "coordinates": [ 140.005946818305432, 37.453136833499997 ] } },
{ "type": "Feature", "properties": { "name": "郡山市" }, "geometry": { "type": "Point", "coordinates": [ 140.286085595488686, 37.44589786 ] } },
{ "type": "Feature", "properties": { "name": "いわき市" }, "geometry": { "type": "Point", "coordinates": [ 140.819034063148621, 37.087772991 ] } },
{ "type": "Feature", "properties": { "name": "白河市" }, "geometry": { "type": "Point", "coordinates": [ 140.241688526085341, 37.130914973 ] } },
{ "type": "Feature", "properties": { "name": "須賀川市" }, "geometry": { "type": "Point", "coordinates": [ 140.303555359026319, 37.298094446 ] } },
{ "type": "Feature", "properties": { "name": "喜多方市" }, "geometry": { "type": "Point", "coordinates": [ 139.848391203764663, 37.717350360499999 ] } },
{ "type": "Feature", "properties": { "name": "喜多方市" }, "geometry": { "type": "Point", "coordinates": [ 139.929314378005188, 37.579219059 ] } },
{ "type": "Feature", "properties": { "name": "相馬市" }, "geometry": { "type": "Point", "coordinates": [ 140.890511253617007, 37.782906531500004 ] } },
{ "type": "Feature", "properties": { "name": "二本松市" }, "geometry": { "type": "Point", "coordinates": [ 140.494195224047729, 37.574908193500001 ] } },
{ "type": "Feature", "properties": { "name": "田村市" }, "geometry": { "type": "Point", "coordinates": [ 140.687147057741299, 37.406345860499997 ] } },
{ "type": "Feature", "properties": { "name": "南相馬市" }, "geometry": { "type": "Point", "coordinates": [ 140.92680031842275, 37.627268937000018 ] } },
{ "type": "Feature", "properties": { "name": "伊達市" }, "geometry": { "type": "Point", "coordinates": [ 140.606529346063155, 37.802200054 ] } },
{ "type": "Feature", "properties": { "name": "本宮市" }, "geometry": { "type": "Point", "coordinates": [ 140.426102743141371, 37.510757532 ] } },
{ "type": "Feature", "properties": { "name": "桑折町" }, "geometry": { "type": "Point", "coordinates": [ 140.501516155135391, 37.863954333499997 ] } },
{ "type": "Feature", "properties": { "name": "国見町" }, "geometry": { "type": "Point", "coordinates": [ 140.544899325689983, 37.889481446 ] } },
{ "type": "Feature", "properties": { "name": "川俣町" }, "geometry": { "type": "Point", "coordinates": [ 140.619097968875053, 37.63096036 ] } },
{ "type": "Feature", "properties": { "name": "大玉村" }, "geometry": { "type": "Point", "coordinates": [ 140.353597252781242, 37.579413419 ] } },
{ "type": "Feature", "properties": { "name": "大玉村" }, "geometry": { "type": "Point", "coordinates": [ 140.320179270782631, 37.563709279500003 ] } },
{ "type": "Feature", "properties": { "name": "鏡石町" }, "geometry": { "type": "Point", "coordinates": [ 140.343138720511092, 37.246859414 ] } },
{ "type": "Feature", "properties": { "name": "天栄村" }, "geometry": { "type": "Point", "coordinates": [ 140.085683914881514, 37.269140567500003 ] } },
{ "type": "Feature", "properties": { "name": "下郷町" }, "geometry": { "type": "Point", "coordinates": [ 139.841359926618566, 37.253944860499999 ] } },
{ "type": "Feature", "properties": { "name": "檜枝岐村" }, "geometry": { "type": "Point", "coordinates": [ 139.337594076617677, 37.056930113 ] } },
{ "type": "Feature", "properties": { "name": "只見町" }, "geometry": { "type": "Point", "coordinates": [ 139.359602447941484, 37.292508540500002 ] } },
{ "type": "Feature", "properties": { "name": "南会津町" }, "geometry": { "type": "Point", "coordinates": [ 139.646783627424213, 37.140058166499998 ] } },
{ "type": "Feature", "properties": { "name": "北塩原村" }, "geometry": { "type": "Point", "coordinates": [ 140.049220635289203, 37.690945608 ] } },
{ "type": "Feature", "properties": { "name": "西会津町" }, "geometry": { "type": "Point", "coordinates": [ 139.643579663353648, 37.65891582 ] } },
{ "type": "Feature", "properties": { "name": "磐梯町" }, "geometry": { "type": "Point", "coordinates": [ 139.992585700910098, 37.574390513499999 ] } },
{ "type": "Feature", "properties": { "name": "猪苗代町" }, "geometry": { "type": "Point", "coordinates": [ 140.167429205686403, 37.602543427499995 ] } },
{ "type": "Feature", "properties": { "name": "会津坂下町" }, "geometry": { "type": "Point", "coordinates": [ 139.793312946425431, 37.575816446 ] } },
{ "type": "Feature", "properties": { "name": "湯川村" }, "geometry": { "type": "Point", "coordinates": [ 139.880439886543968, 37.5681082475 ] } },
{ "type": "Feature", "properties": { "name": "柳津町" }, "geometry": { "type": "Point", "coordinates": [ 139.711844951222986, 37.461808081 ] } },
{ "type": "Feature", "properties": { "name": "三島町" }, "geometry": { "type": "Point", "coordinates": [ 139.631987660596621, 37.4345821665 ] } },
{ "type": "Feature", "properties": { "name": "金山町" }, "geometry": { "type": "Point", "coordinates": [ 139.493471204437014, 37.425534045 ] } },
{ "type": "Feature", "properties": { "name": "昭和村" }, "geometry": { "type": "Point", "coordinates": [ 139.659664745101907, 37.30031732 ] } },
{ "type": "Feature", "properties": { "name": "会津美里町" }, "geometry": { "type": "Point", "coordinates": [ 139.840963840615188, 37.406861274500002 ] } },
{ "type": "Feature", "properties": { "name": "西郷村" }, "geometry": { "type": "Point", "coordinates": [ 140.081476389680518, 37.169472 ] } },
{ "type": "Feature", "properties": { "name": "泉崎村" }, "geometry": { "type": "Point", "coordinates": [ 140.297469736843482, 37.156574585499996 ] } },
{ "type": "Feature", "properties": { "name": "中島村" }, "geometry": { "type": "Point", "coordinates": [ 140.361453681345495, 37.148329819499999 ] } },
{ "type": "Feature", "properties": { "name": "矢吹町" }, "geometry": { "type": "Point", "coordinates": [ 140.347119962302855, 37.190899531500001 ] } },
{ "type": "Feature", "properties": { "name": "棚倉町" }, "geometry": { "type": "Point", "coordinates": [ 140.338773132043286, 37.008588914499995 ] } },
{ "type": "Feature", "properties": { "name": "矢祭町" }, "geometry": { "type": "Point", "coordinates": [ 140.435844685272002, 36.866007473 ] } },
{ "type": "Feature", "properties": { "name": "塙町" }, "geometry": { "type": "Point", "coordinates": [ 140.49713080839939, 36.929510838 ] } },
{ "type": "Feature", "properties": { "name": "鮫川村" }, "geometry": { "type": "Point", "coordinates": [ 140.512242212112881, 37.011449914500005 ] } },
{ "type": "Feature", "properties": { "name": "石川町" }, "geometry": { "type": "Point", "coordinates": [ 140.448340195057057, 37.139978486499999 ] } },
{ "type": "Feature", "properties": { "name": "玉川村" }, "geometry": { "type": "Point", "coordinates": [ 140.45616019576147, 37.218258265499998 ] } },
{ "type": "Feature", "properties": { "name": "平田村" }, "geometry": { "type": "Point", "coordinates": [ 140.560297199700187, 37.214658072 ] } },
{ "type": "Feature", "properties": { "name": "浅川町" }, "geometry": { "type": "Point", "coordinates": [ 140.420002841258736, 37.071783919 ] } },
{ "type": "Feature", "properties": { "name": "古殿町" }, "geometry": { "type": "Point", "coordinates": [ 140.583354594026162, 37.080429360500005 ] } },
{ "type": "Feature", "properties": { "name": "三春町" }, "geometry": { "type": "Point", "coordinates": [ 140.497181001208503, 37.4407148875 ] } },
{ "type": "Feature", "properties": { "name": "小野町" }, "geometry": { "type": "Point", "coordinates": [ 140.597477440979617, 37.285299373499996 ] } },
{ "type": "Feature", "properties": { "name": "広野町" }, "geometry": { "type": "Point", "coordinates": [ 140.955866437095068, 37.216159171499996 ] } },
{ "type": "Feature", "properties": { "name": "楢葉町" }, "geometry": { "type": "Point", "coordinates": [ 140.95493169803018, 37.288333022499998 ] } },
{ "type": "Feature", "properties": { "name": "富岡町" }, "geometry": { "type": "Point", "coordinates": [ 140.970447807845915, 37.343623739 ] } },
{ "type": "Feature", "properties": { "name": "川内村" }, "geometry": { "type": "Point", "coordinates": [ 140.811586145041929, 37.328027112499996 ] } },
{ "type": "Feature", "properties": { "name": "大熊町" }, "geometry": { "type": "Point", "coordinates": [ 140.946711388107332, 37.403414716 ] } },
{ "type": "Feature", "properties": { "name": "双葉町" }, "geometry": { "type": "Point", "coordinates": [ 140.989025670015451, 37.446842333500001 ] } },
{ "type": "Feature", "properties": { "name": "浪江町" }, "geometry": { "type": "Point", "coordinates": [ 140.912011707211832, 37.517159586 ] } },
{ "type": "Feature", "properties": { "name": "葛尾村" }, "geometry": { "type": "Point", "coordinates": [ 140.772556656034567, 37.502780338 ] } },
{ "type": "Feature", "properties": { "name": "新地町" }, "geometry": { "type": "Point", "coordinates": [ 140.897845163634145, 37.870180094500057 ] } },
{ "type": "Feature", "properties": { "name": "飯舘村" }, "geometry": { "type": "Point", "coordinates": [ 140.740796929999647, 37.677539486499995 ] } },
{ "type": "Feature", "properties": { "name": "福岛第一核电站" }, "geometry": { "type": "Point", "coordinates": [ 141.0333,37.420556,50000] } }


]
}
