{"type":"FeatureCollection","features":[{"type":"Feature","properties":{"num":1,"name":"核电站　南放水口附近"},"geometry":{"type":"Point","coordinates":[141.035693,37.419685]}},{"type":"Feature","properties":{"num":2,"name":"核电站 北放水口附近"},"geometry":{"type":"Point","coordinates":[141.035693,37.43154]}},{"type":"Feature","properties":{"num":3,"name":"核电站　取水口附近"},"geometry":{"type":"Point","coordinates":[141.041174,37.423575]}},{"type":"Feature","properties":{"num":4,"name":"核电站　离岸2公里处"},"geometry":{"type":"Point","coordinates":[141.060533,37.423575]}},{"type":"Feature","properties":{"num":5,"name":"夫沢、熊川离岸2公里处"},"geometry":{"type":"Point","coordinates":[141.061232,37.385779]}},{"type":"Feature","properties":{"num":6,"name":"双叶、前田川离岸2公里处"},"geometry":{"type":"Point","coordinates":[141.061736,37.452502]}},{"type":"Feature","properties":{"name":"ALPS处理水放出口以北2公里、以西0.5公里处","num":7},"geometry":{"type":"Point","coordinates":[141.04401,37.450187]}},{"type":"Feature","properties":{"num":8,"name":"ALPS处理水放出口以北1公里"},"geometry":{"type":"Point","coordinates":[141.049957,37.439169]}},{"type":"Feature","properties":{"num":9,"name":"ALPS处理水放出口以南1公里"},"geometry":{"type":"Point","coordinates":[141.047042,37.421018]}}]}